{"type": "FeatureCollection", "features": [ {"type": "Feature", "properties": {"norad_id": 28649, "name": "IRS-P5 (CARTOSAT-1)", "group": "resource", "lat": 51.191368854455035, "lon": 11.059322728832454, "alt_km": 591.3410946139929, "timestamp": "2025-12-20T11:30:28.027544+00:00", "meta": {"OBJECT_NAME": "IRS-P5 (CARTOSAT-1)", "OBJECT_ID": "2005-017A", "EPOCH": "2025-12-19T23:59:49.911936", "MEAN_MOTION": 14.90427288, "ECCENTRICITY": 8.04e-05, "INCLINATION": 97.5486, "RA_OF_ASC_NODE": 20.0911, "ARG_OF_PERICENTER": 50.7358, "MEAN_ANOMALY": 309.3932, "EPHEMERIS_TYPE": 0, "CLASSIFICATION_TYPE": "U", "NORAD_CAT_ID": 28649, "ELEMENT_SET_NO": 999, "REV_AT_EPOCH": 11712, "BSTAR": 0.00010856, "MEAN_MOTION_DOT": 1.006e-05, "MEAN_MOTION_DDOT": 0}, "tle": {"line1": "1 28649U 05017A   25353.99988324  .00001006  00000+0  10856-3 0  9991", "line2": "2 28649  97.5486  20.0911 0000804  50.7358 309.3932 14.90427288117129"}}, "geometry": {"type": "Point", "coordinates": [11.059322728832454, 51.191368854455035]}}, {"type": "Feature", "properties": {"norad_id": 28893, "name": "SINAH 1", "group": "resource", "lat": 29.139469367254993, "lon": 118.41180525025133, "alt_km": 677.9505251001765, "timestamp": "2025-12-20T11:30:28.027555+00:00", "meta": {"OBJECT_NAME": "SINAH 1", "OBJECT_ID": "2005-043D", "EPOCH": "2025-12-20T01:31:52.970592", "MEAN_MOTION": 14.63969627, "ECCENTRICITY": 0.0015627, "INCLINATION": 98.2608, "RA_OF_ASC_NODE": 122.6408, "ARG_OF_PERICENTER": 115.5487, "MEAN_ANOMALY": 244.7332, "EPHEMERIS_TYPE": 0, "CLASSIFICATION_TYPE": "U", "NORAD_CAT_ID": 28893, "ELEMENT_SET_NO": 999, "REV_AT_EPOCH": 7431, "BSTAR": 6.4368e-05, "MEAN_MOTION_DOT": 2.89e-06, "MEAN_MOTION_DDOT": 0}, "tle": {"line1": "1 28893U 05043D   25354.06380753  .00000289  00000+0  64368-4 0  9992", "line2": "2 28893  98.2608 122.6408 0015627 115.5487 244.7332 14.63969627 74313"}}, "geometry": {"type": "Point", "coordinates": [118.41180525025133, 29.139469367254993]}}, {"type": "Feature", "properties": {"norad_id": 29079, "name": "EROS B", "group": "resource", "lat": 81.34443979507876, "lon": -10.6136823578759, "alt_km": 351.64838704775684, "timestamp": "2025-12-20T11:30:28.027565+00:00", "meta": {"OBJECT_NAME": "EROS B", "OBJECT_ID": "2006-014A", "EPOCH": "2025-12-20T03:27:39.604896", "MEAN_MOTION": 15.70537834, "ECCENTRICITY": 0.0003503, "INCLINATION": 97.3468, "RA_OF_ASC_NODE": 111.0831, "ARG_OF_PERICENTER": 310.2859, "MEAN_ANOMALY": 49.8096, "EPHEMERIS_TYPE": 0, "CLASSIFICATION_TYPE": "U", "NORAD_CAT_ID": 29079, "ELEMENT_SET_NO": 999, "REV_AT_EPOCH": 9196, "BSTAR": 0.0010787, "MEAN_MOTION_DOT": 0.00134151, "MEAN_MOTION_DDOT": 0}, "tle": {"line1": "1 29079U 06014A   25354.14420839  .00134151  00000+0  10787-2 0  9997", "line2": "2 29079  97.3468 111.0831 0003503 310.2859  49.8096 15.70537834 91964"}}, "geometry": {"type": "Point", "coordinates": [-10.6136823578759, 81.34443979507876]}}, {"type": "Feature", "properties": {"norad_id": 29228, "name": "RESURS-DK 1", "group": "resource", "lat": -45.054580872005914, "lon": -76.6796736548164, "alt_km": 531.2730146207423, "timestamp": "2025-12-20T11:30:28.027585+00:00", "meta": {"OBJECT_NAME": "RESURS-DK 1", "OBJECT_ID": "2006-021A", "EPOCH": "2025-12-19T17:02:08.743488", "MEAN_MOTION": 15.12197286, "ECCENTRICITY": 0.0006864, "INCLINATION": 69.9339, "RA_OF_ASC_NODE": 83.8253, "ARG_OF_PERICENTER": 253.3624, "MEAN_ANOMALY": 106.6789, "EPHEMERIS_TYPE": 0, "CLASSIFICATION_TYPE": "U", "NORAD_CAT_ID": 29228, "ELEMENT_SET_NO": 999, "REV_AT_EPOCH": 7543, "BSTAR": 0.00011372674, "MEAN_MOTION_DOT": 1.861e-05, "MEAN_MOTION_DDOT": 0}, "tle": {"line1": "1 29228U 06021A   25353.70982342  .00001861  00000+0  11373-3 0  9998", "line2": "2 29228  69.9339  83.8253 0006864 253.3624 106.6789 15.12197286 75430"}}, "geometry": {"type": "Point", "coordinates": [-76.6796736548164, -45.054580872005914]}}, {"type": "Feature", "properties": {"norad_id": 29268, "name": "ARIRANG-2 (KOMPSAT-2)", "group": "resource", "lat": -49.67690637089924, "lon": -168.10073585891635, "alt_km": 677.2901621188312, "timestamp": "2025-12-20T11:30:28.027610+00:00", "meta": {"OBJECT_NAME": "ARIRANG-2 (KOMPSAT-2)", "OBJECT_ID": "2006-031A", "EPOCH": "2025-12-20T04:09:15.890976", "MEAN_MOTION": 14.64498947, "ECCENTRICITY": 0.0013195, "INCLINATION": 97.8253, "RA_OF_ASC_NODE": 182.2832, "ARG_OF_PERICENTER": 283.6177, "MEAN_ANOMALY": 211.7012, "EPHEMERIS_TYPE": 0, "CLASSIFICATION_TYPE": "U", "NORAD_CAT_ID": 29268, "ELEMENT_SET_NO": 999, "REV_AT_EPOCH": 3527, "BSTAR": 4.312e-06, "MEAN_MOTION_DOT": -2.2e-07, "MEAN_MOTION_DDOT": 0}, "tle": {"line1": "1 29268U 06031A   25354.17310059 -.00000022  00000+0  43120-5 0  9991", "line2": "2 29268  97.8253 182.2832 0013195 283.6177 211.7012 14.64498947 35279"}}, "geometry": {"type": "Point", "coordinates": [-168.10073585891635, -49.67690637089924]}}, {"type": "Feature", "properties": {"norad_id": 29709, "name": "LAPAN-TUBSAT", "group": "resource", "lat": 64.78976840872475, "lon": -177.5394563127061, "alt_km": 600.848220282991, "timestamp": "2025-12-20T11:30:28.027631+00:00", "meta": {"OBJECT_NAME": "LAPAN-TUBSAT", "OBJECT_ID": "2007-001A", "EPOCH": "2025-12-20T04:31:56.813664", "MEAN_MOTION": 14.85679801, "ECCENTRICITY": 0.0013371, "INCLINATION": 98.125, "RA_OF_ASC_NODE": 344.4985, "ARG_OF_PERICENTER": 52.0448, "MEAN_ANOMALY": 308.1972, "EPHEMERIS_TYPE": 0, "CLASSIFICATION_TYPE": "U", "NORAD_CAT_ID": 29709, "ELEMENT_SET_NO": 999, "REV_AT_EPOCH": 2457, "BSTAR": 4.5008e-05, "MEAN_MOTION_DOT": 3.33e-06, "MEAN_MOTION_DDOT": 0}, "tle": {"line1": "1 29709U 07001A   25354.18885201  .00000333  00000+0  45008-4 0  9996", "line2": "2 29709  98.1250 344.4985 0013371  52.0448 308.1972 14.85679801 24576"}}, "geometry": {"type": "Point", "coordinates": [-177.5394563127061, 64.78976840872475]}}, {"type": "Feature", "properties": {"norad_id": 31113, "name": "HAIYANG-1B", "group": "resource", "lat": -79.34923426624172, "lon": 29.63077195369051, "alt_km": 797.4297373479749, "timestamp": "2025-12-20T11:30:28.027644+00:00", "meta": {"OBJECT_NAME": "HAIYANG-1B", "OBJECT_ID": "2007-010A", "EPOCH": "2025-12-19T12:24:07.786656", "MEAN_MOTION": 14.30967225, "ECCENTRICITY": 0.0013939, "INCLINATION": 98.332, "RA_OF_ASC_NODE": 337.5151, "ARG_OF_PERICENTER": 18.7934, "MEAN_ANOMALY": 341.3762, "EPHEMERIS_TYPE": 0, "CLASSIFICATION_TYPE": "U", "NORAD_CAT_ID": 31113, "ELEMENT_SET_NO": 999, "REV_AT_EPOCH": 97493, "BSTAR": 4.3711e-05, "MEAN_MOTION_DOT": 7.3e-07, "MEAN_MOTION_DDOT": 0}, "tle": {"line1": "1 31113U 07010A   25353.51675679  .00000073  00000+0  43711-4 0  9990", "line2": "2 31113  98.3320 337.5151 0013939  18.7934 341.3762 14.30967225974935"}}, "geometry": {"type": "Point", "coordinates": [29.63077195369051, -79.34923426624172]}}, {"type": "Feature", "properties": {"norad_id": 31598, "name": "COSMO-SKYMED 1", "group": "resource", "lat": -8.858948280529026, "lon": -178.83309644368518, "alt_km": 583.9923950829552, "timestamp": "2025-12-20T11:30:28.027657+00:00", "meta": {"OBJECT_NAME": "COSMO-SKYMED 1", "OBJECT_ID": "2007-023A", "EPOCH": "2025-12-20T03:31:13.290240", "MEAN_MOTION": 14.95819669, "ECCENTRICITY": 0.0001579, "INCLINATION": 97.8837, "RA_OF_ASC_NODE": 179.5945, "ARG_OF_PERICENTER": 84.7963, "MEAN_ANOMALY": 275.3437, "EPHEMERIS_TYPE": 0, "CLASSIFICATION_TYPE": "U", "NORAD_CAT_ID": 31598, "ELEMENT_SET_NO": 999, "REV_AT_EPOCH": 301, "BSTAR": 0.00026672, "MEAN_MOTION_DOT": 2.919e-05, "MEAN_MOTION_DDOT": 0}, "tle": {"line1": "1 31598U 07023A   25354.14668160  .00002919  00000+0  26672-3 0  9995", "line2": "2 31598  97.8837 179.5945 0001579  84.7963 275.3437 14.95819669  3012"}}, "geometry": {"type": "Point", "coordinates": [-178.83309644368518, -8.858948280529026]}}, {"type": "Feature", "properties": {"norad_id": 31698, "name": "TERRASAR-X", "group": "resource", "lat": -62.53476718452035, "lon": 14.318735777313593, "alt_km": 516.7543003843966, "timestamp": "2025-12-20T11:30:28.027672+00:00", "meta": {"OBJECT_NAME": "TERRASAR-X", "OBJECT_ID": "2007-026A", "EPOCH": "2025-12-19T12:04:27.729408", "MEAN_MOTION": 15.19152518, "ECCENTRICITY": 0.0001854, "INCLINATION": 97.4454, "RA_OF_ASC_NODE": 358.785, "ARG_OF_PERICENTER": 93.3795, "MEAN_ANOMALY": 266.7652, "EPHEMERIS_TYPE": 0, "CLASSIFICATION_TYPE": "U", "NORAD_CAT_ID": 31698, "ELEMENT_SET_NO": 999, "REV_AT_EPOCH": 2594, "BSTAR": 3.366e-05, "MEAN_MOTION_DOT": 6.4e-06, "MEAN_MOTION_DDOT": 0}, "tle": {"line1": "1 31698U 07026A   25353.50309872  .00000640  00000+0  33660-4 0  9995", "line2": "2 31698  97.4454 358.7850 0001854  93.3795 266.7652 15.19152518 25944"}}, "geometry": {"type": "Point", "coordinates": [14.318735777313593, -62.53476718452035]}}, {"type": "Feature", "properties": {"norad_id": 32060, "name": "WORLDVIEW-1 (WV-1)", "group": "resource", "lat": 81.71959003912812, "lon": -5.13337153122908, "alt_km": 483.2943185243539, "timestamp": "2025-12-20T11:30:28.027684+00:00", "meta": {"OBJECT_NAME": "WORLDVIEW-1 (WV-1)", "OBJECT_ID": "2007-041A", "EPOCH": "2025-12-20T01:38:54.043584", "MEAN_MOTION": 15.24802283, "ECCENTRICITY": 0.0001001, "INCLINATION": 97.3843, "RA_OF_ASC_NODE": 111.447, "ARG_OF_PERICENTER": 119.0221, "MEAN_ANOMALY": 241.1117, "EPHEMERIS_TYPE": 0, "CLASSIFICATION_TYPE": "U", "NORAD_CAT_ID": 32060, "ELEMENT_SET_NO": 999, "REV_AT_EPOCH": 1559, "BSTAR": 0.00024422, "MEAN_MOTION_DOT": 5.987e-05, "MEAN_MOTION_DDOT": 0}, "tle": {"line1": "1 32060U 07041A   25354.06868106  .00005987  00000+0  24422-3 0  9992", "line2": "2 32060  97.3843 111.4470 0001001 119.0221 241.1117 15.24802283 15595"}}, "geometry": {"type": "Point", "coordinates": [-5.13337153122908, 81.71959003912812]}}]}